{"total": 10075, "timestamp": 1630052346.883754, "list": [{"postcode": 1001, "name": "Sydney", "active_cases": 0}, {"postcode": 1002, "name": "Sydney", "active_cases": 0}, {"postcode": 1003, "name": "Sydney", "active_cases": 0}, {"postcode": 1004, "name": "Sydney", "active_cases": 0}, {"postcode": 1005, "name": "Sydney", "active_cases": 0}, {"postcode": 1006, "name": "Sydney", "active_cases": 0}, {"postcode": 1007, "name": "Sydney", "active_cases": 0}, {"postcode": 1008, "name": "Sydney", "active_cases": 0}, {"postcode": 1009, "name": "Sydney", "active_cases": 0}, {"postcode": 1010, "name": "Sydney", "active_cases": 0}, {"postcode": 1011, "name": "Sydney", "active_cases": 0}, {"postcode": 1020, "name": "Sydney", "active_cases": 0}, {"postcode": 1021, "name": "Sydney", "active_cases": 0}, {"postcode": 1022, "name": "Sydney", "active_cases": 0}, {"postcode": 1023, "name": "Sydney", "active_cases": 0}, {"postcode": 1025, "name": "Sydney", "active_cases": 0}, {"postcode": 1026, "name": "Sydney", "active_cases": 0}, {"postcode": 1027, "name": "Sydney", "active_cases": 0}, {"postcode": 1028, "name": "Sydney", "active_cases": 0}, {"postcode": 1029, "name": "Sydney", "active_cases": 0}, {"postcode": 1030, "name": "Sydney", "active_cases": 0}, {"postcode": 1031, "name": "Sydney", "active_cases": 0}, {"postcode": 1032, "name": "Sydney", "active_cases": 0}, {"postcode": 1033, "name": "Sydney", "active_cases": 0}, {"postcode": 1034, "name": "Sydney", "active_cases": 0}, {"postcode": 1035, "name": "Sydney", "active_cases": 0}, {"postcode": 1036, "name": "Sydney", "active_cases": 0}, {"postcode": 1037, "name": "Sydney", "active_cases": 0}, {"postcode": 1038, "name": "Sydney", "active_cases": 0}, {"postcode": 1039, "name": "Sydney", "active_cases": 0}, {"postcode": 1040, "name": "Sydney", "active_cases": 0}, {"postcode": 1041, "name": "Sydney", "active_cases": 0}, {"postcode": 1042, "name": "Sydney", "active_cases": 0}, {"postcode": 1043, "name": "Sydney", "active_cases": 0}, {"postcode": 1044, "name": "Sydney", "active_cases": 0}, {"postcode": 1045, "name": "Sydney", "active_cases": 0}, {"postcode": 1046, "name": "Sydney", "active_cases": 0}, {"postcode": 1100, "name": "Sydney", "active_cases": 0}, {"postcode": 1101, "name": "Sydney", "active_cases": 0}, {"postcode": 1105, "name": "Sydney", "active_cases": 0}, {"postcode": 1106, "name": "Sydney", "active_cases": 0}, {"postcode": 1107, "name": "Sydney", "active_cases": 0}, {"postcode": 1108, "name": "Sydney", "active_cases": 0}, {"postcode": 1109, "name": "Sydney", "active_cases": 0}, {"postcode": 1110, "name": "Sydney", "active_cases": 0}, {"postcode": 1112, "name": "Sydney", "active_cases": 0}, {"postcode": 1113, "name": "Sydney", "active_cases": 0}, {"postcode": 1114, "name": "Sydney", "active_cases": 0}, {"postcode": 1115, "name": "Sydney", "active_cases": 0}, {"postcode": 1116, "name": "Sydney", "active_cases": 0}, {"postcode": 1117, "name": "Sydney", "active_cases": 0}, {"postcode": 1118, "name": "Sydney", "active_cases": 0}, {"postcode": 1119, "name": "Sydney", "active_cases": 0}, {"postcode": 1120, "name": "Sydney", "active_cases": 0}, {"postcode": 1121, "name": "Sydney", "active_cases": 0}, {"postcode": 1122, "name": "Sydney", "active_cases": 0}, {"postcode": 1123, "name": "Sydney", "active_cases": 0}, {"postcode": 1124, "name": "Sydney", "active_cases": 0}, {"postcode": 1125, "name": "Sydney", "active_cases": 0}, {"postcode": 1126, "name": "Sydney", "active_cases": 0}, {"postcode": 1127, "name": "Sydney", "active_cases": 0}, {"postcode": 1128, "name": "Sydney", "active_cases": 0}, {"postcode": 1129, "name": "Sydney", "active_cases": 0}, {"postcode": 1130, "name": "Sydney", "active_cases": 0}, {"postcode": 1131, "name": "Sydney", "active_cases": 0}, {"postcode": 1132, "name": "Sydney", "active_cases": 0}, {"postcode": 1133, "name": "Sydney", "active_cases": 0}, {"postcode": 1134, "name": "Sydney", "active_cases": 0}, {"postcode": 1135, "name": "Sydney", "active_cases": 0}, {"postcode": 1136, "name": "Sydney", "active_cases": 0}, {"postcode": 1137, "name": "Sydney", "active_cases": 0}, {"postcode": 1138, "name": "Sydney", "active_cases": 0}, {"postcode": 1139, "name": "Sydney", "active_cases": 0}, {"postcode": 1140, "name": "Sydney", "active_cases": 0}, {"postcode": 1141, "name": "Sydney", "active_cases": 0}, {"postcode": 1142, "name": "Sydney", "active_cases": 0}, {"postcode": 1143, "name": "Sydney", "active_cases": 0}, {"postcode": 1144, "name": "Sydney", "active_cases": 0}, {"postcode": 1145, "name": "Sydney", "active_cases": 0}, {"postcode": 1146, "name": "Sydney", "active_cases": 0}, {"postcode": 1147, "name": "Sydney", "active_cases": 0}, {"postcode": 1148, "name": "Sydney", "active_cases": 0}, {"postcode": 1149, "name": "Sydney", "active_cases": 0}, {"postcode": 1150, "name": "Sydney", "active_cases": 0}, {"postcode": 1151, "name": "Sydney", "active_cases": 0}, {"postcode": 1152, "name": "Sydney", "active_cases": 0}, {"postcode": 1153, "name": "Sydney", "active_cases": 0}, {"postcode": 1154, "name": "Sydney", "active_cases": 0}, {"postcode": 1155, "name": "Sydney", "active_cases": 0}, {"postcode": 1156, "name": "Sydney", "active_cases": 0}, {"postcode": 1157, "name": "Sydney", "active_cases": 0}, {"postcode": 1158, "name": "Sydney", "active_cases": 0}, {"postcode": 1159, "name": "Sydney", "active_cases": 0}, {"postcode": 1160, "name": "Sydney", "active_cases": 0}, {"postcode": 1161, "name": "Sydney", "active_cases": 0}, {"postcode": 1162, "name": "Sydney", "active_cases": 0}, {"postcode": 1163, "name": "Sydney", "active_cases": 0}, {"postcode": 1164, "name": "Sydney", "active_cases": 0}, {"postcode": 1165, "name": "Sydney", "active_cases": 0}, {"postcode": 1166, "name": "Sydney", "active_cases": 0}, {"postcode": 1167, "name": "Sydney", "active_cases": 0}, {"postcode": 1168, "name": "Sydney", "active_cases": 0}, {"postcode": 1169, "name": "Sydney", "active_cases": 0}, {"postcode": 1170, "name": "Sydney", "active_cases": 0}, {"postcode": 1171, "name": "Sydney", "active_cases": 0}, {"postcode": 1172, "name": "Sydney", "active_cases": 0}, {"postcode": 1173, "name": "Sydney", "active_cases": 0}, {"postcode": 1174, "name": "Sydney", "active_cases": 0}, {"postcode": 1175, "name": "Sydney", "active_cases": 0}, {"postcode": 1176, "name": "Sydney", "active_cases": 0}, {"postcode": 1177, "name": "Sydney", "active_cases": 0}, {"postcode": 1178, "name": "Sydney", "active_cases": 0}, {"postcode": 1179, "name": "Sydney", "active_cases": 0}, {"postcode": 1180, "name": "Sydney", "active_cases": 0}, {"postcode": 1181, "name": "Sydney", "active_cases": 0}, {"postcode": 1182, "name": "Sydney", "active_cases": 0}, {"postcode": 1183, "name": "Sydney", "active_cases": 0}, {"postcode": 1184, "name": "Sydney", "active_cases": 0}, {"postcode": 1185, "name": "Sydney", "active_cases": 0}, {"postcode": 1186, "name": "Sydney", "active_cases": 0}, {"postcode": 1187, "name": "Sydney", "active_cases": 0}, {"postcode": 1188, "name": "Sydney", "active_cases": 0}, {"postcode": 1189, "name": "Sydney", "active_cases": 0}, {"postcode": 1190, "name": "Sydney", "active_cases": 0}, {"postcode": 1191, "name": "Sydney", "active_cases": 0}, {"postcode": 1192, "name": "Sydney", "active_cases": 0}, {"postcode": 1193, "name": "Sydney", "active_cases": 0}, {"postcode": 1194, "name": "Sydney", "active_cases": 0}, {"postcode": 1195, "name": "Sydney", "active_cases": 0}, {"postcode": 1196, "name": "Sydney", "active_cases": 0}, {"postcode": 1197, "name": "Sydney", "active_cases": 0}, {"postcode": 1198, "name": "Sydney", "active_cases": 0}, {"postcode": 1199, "name": "Sydney", "active_cases": 0}, {"postcode": 1200, "name": "Sydney", "active_cases": 0}, {"postcode": 1201, "name": "Sydney", "active_cases": 0}, {"postcode": 1202, "name": "Sydney", "active_cases": 0}, {"postcode": 1203, "name": "Sydney", "active_cases": 0}, {"postcode": 1204, "name": "Sydney", "active_cases": 0}, {"postcode": 1205, "name": "Sydney", "active_cases": 0}, {"postcode": 1206, "name": "Sydney", "active_cases": 0}, {"postcode": 1207, "name": "Sydney", "active_cases": 0}, {"postcode": 1208, "name": "Haymarket", "active_cases": 0}, {"postcode": 1209, "name": "Australia Square", "active_cases": 0}, {"postcode": 1210, "name": "Australia Square", "active_cases": 0}, {"postcode": 1211, "name": "Australia Square", "active_cases": 0}, {"postcode": 1212, "name": "Australia Square", "active_cases": 0}, {"postcode": 1213, "name": "Australia Square", "active_cases": 0}, {"postcode": 1214, "name": "Australia Square", "active_cases": 0}, {"postcode": 1215, "name": "Australia Square", "active_cases": 0}, {"postcode": 1216, "name": "Grosvenor Place", "active_cases": 0}, {"postcode": 1217, "name": "Grosvenor Place", "active_cases": 0}, {"postcode": 1218, "name": "Grosvenor Place", "active_cases": 0}, {"postcode": 1219, "name": "Grosvenor Place", "active_cases": 0}, {"postcode": 1220, "name": "Grosvenor Place", "active_cases": 0}, {"postcode": 1221, "name": "Royal Exchange", "active_cases": 0}, {"postcode": 1222, "name": "Royal Exchange", "active_cases": 0}, {"postcode": 1223, "name": "Royal Exchange", "active_cases": 0}, {"postcode": 1224, "name": "Royal Exchange", "active_cases": 0}, {"postcode": 1225, "name": "Royal Exchange", "active_cases": 0}, {"postcode": 1226, "name": "Queen Victoria Building", "active_cases": 0}, {"postcode": 1227, "name": "Queen Victoria Building", "active_cases": 0}, {"postcode": 1228, "name": "Queen Victoria Building", "active_cases": 0}, {"postcode": 1229, "name": "Queen Victoria Building", "active_cases": 0}, {"postcode": 1230, "name": "Queen Victoria Building", "active_cases": 0}, {"postcode": 1231, "name": "Sydney South", "active_cases": 0}, {"postcode": 1232, "name": "Sydney South", "active_cases": 0}, {"postcode": 1233, "name": "Sydney South", "active_cases": 0}, {"postcode": 1234, "name": "Sydney South", "active_cases": 0}, {"postcode": 1235, "name": "Sydney South", "active_cases": 0}, {"postcode": 1236, "name": "Haymarket", "active_cases": 0}, {"postcode": 1237, "name": "Haymarket", "active_cases": 0}, {"postcode": 1238, "name": "Haymarket", "active_cases": 0}, {"postcode": 1239, "name": "Haymarket", "active_cases": 0}, {"postcode": 1240, "name": "Haymarket", "active_cases": 0}, {"postcode": 1291, "name": "Sydney", "active_cases": 0}, {"postcode": 1292, "name": "Sydney", "active_cases": 0}, {"postcode": 1293, "name": "Sydney", "active_cases": 0}, {"postcode": 1294, "name": "Sydney", "active_cases": 0}, {"postcode": 1295, "name": "Sydney", "active_cases": 0}, {"postcode": 1296, "name": "Sydney", "active_cases": 0}, {"postcode": 1297, "name": "Sydney", "active_cases": 0}, {"postcode": 1298, "name": "Sydney", "active_cases": 0}, {"postcode": 1299, "name": "Sydney", "active_cases": 0}, {"postcode": 1300, "name": "Darlinghurst", "active_cases": 0}, {"postcode": 1311, "name": "Eastern Suburbs Mc", "active_cases": 0}, {"postcode": 1312, "name": "Eastern Suburbs Mc", "active_cases": 0}, {"postcode": 1313, "name": "Eastern Suburbs Mc", "active_cases": 0}, {"postcode": 1314, "name": "Eastern Suburbs Mc", "active_cases": 0}, {"postcode": 1315, "name": "Eastern Suburbs Mc", "active_cases": 0}, {"postcode": 1316, "name": "Eastern Suburbs Mc", "active_cases": 0}, {"postcode": 1317, "name": "Eastern Suburbs Mc", "active_cases": 0}, {"postcode": 1318, "name": "Eastern Suburbs Mc", "active_cases": 0}, {"postcode": 1319, "name": "Eastern Suburbs Mc", "active_cases": 0}, {"postcode": 1320, "name": "Eastern Suburbs Mc", "active_cases": 0}, {"postcode": 1321, "name": "Eastern Suburbs Mc", "active_cases": 0}, {"postcode": 1322, "name": "Eastern Suburbs Mc", "active_cases": 0}, {"postcode": 1323, "name": "Eastern Suburbs Mc", "active_cases": 0}, {"postcode": 1324, "name": "Eastern Suburbs Mc", "active_cases": 0}, {"postcode": 1325, "name": "Eastern Suburbs Mc", "active_cases": 0}, {"postcode": 1326, "name": "Eastern Suburbs Mc", "active_cases": 0}, {"postcode": 1327, "name": "Eastern Suburbs Mc", "active_cases": 0}, {"postcode": 1328, "name": "Eastern Suburbs Mc", "active_cases": 0}, {"postcode": 1329, "name": "Eastern Suburbs Mc", "active_cases": 0}, {"postcode": 1330, "name": "Eastern Suburbs Mc", "active_cases": 0}, {"postcode": 1331, "name": "Eastern Suburbs Mc", "active_cases": 0}, {"postcode": 1332, "name": "Eastern Suburbs Mc", "active_cases": 0}, {"postcode": 1333, "name": "Eastern Suburbs Mc", "active_cases": 0}, {"postcode": 1334, "name": "Eastern Suburbs Mc", "active_cases": 0}, {"postcode": 1335, "name": "Potts Point", "active_cases": 0}, {"postcode": 1340, "name": "Kings Cross", "active_cases": 0}, {"postcode": 1350, "name": "Woollahra", "active_cases": 0}, {"postcode": 1355, "name": "Bondi Junction", "active_cases": 0}, {"postcode": 1360, "name": "Double Bay", "active_cases": 0}, {"postcode": 1363, "name": "Moore Park", "active_cases": 0}, {"postcode": 1391, "name": "Eastern Suburbs Mc", "active_cases": 0}, {"postcode": 1401, "name": "Broadway", "active_cases": 0}, {"postcode": 1416, "name": "Southern Suburbs Mc", "active_cases": 0}, {"postcode": 1419, "name": "Southern Suburbs Mc", "active_cases": 0}, {"postcode": 1420, "name": "Strawberry Hills", "active_cases": 0}, {"postcode": 1421, "name": "Strawberry Hills", "active_cases": 0}, {"postcode": 1422, "name": "Strawberry Hills", "active_cases": 0}, {"postcode": 1423, "name": "Strawberry Hills", "active_cases": 0}, {"postcode": 1424, "name": "Strawberry Hills", "active_cases": 0}, {"postcode": 1425, "name": "Strawberry Hills", "active_cases": 0}, {"postcode": 1426, "name": "Strawberry Hills", "active_cases": 0}, {"postcode": 1427, "name": "Strawberry Hills", "active_cases": 0}, {"postcode": 1428, "name": "Strawberry Hills", "active_cases": 0}, {"postcode": 1429, "name": "Strawberry Hills", "active_cases": 0}, {"postcode": 1430, "name": "Eveleigh", "active_cases": 0}, {"postcode": 1435, "name": "Alexandria", "active_cases": 0}, {"postcode": 1440, "name": "Waterloo", "active_cases": 0}, {"postcode": 1445, "name": "Rosebery", "active_cases": 0}, {"postcode": 1450, "name": "Camperdown", "active_cases": 0}, {"postcode": 1455, "name": "Botany", "active_cases": 0}, {"postcode": 1460, "name": "Mascot", "active_cases": 0}, {"postcode": 1465, "name": "Kensington", "active_cases": 0}, {"postcode": 1466, "name": "Unsw Sydney", "active_cases": 0}, {"postcode": 1470, "name": "Drummoyne", "active_cases": 0}, {"postcode": 1475, "name": "Marrickville", "active_cases": 0}, {"postcode": 1480, "name": "Kingsgrove", "active_cases": 0}, {"postcode": 1481, "name": "Hurstville Bc", "active_cases": 0}, {"postcode": 1484, "name": "Kingsgrove DC", "active_cases": 0}, {"postcode": 1485, "name": "Kogarah", "active_cases": 0}, {"postcode": 1487, "name": "Kogarah", "active_cases": 0}, {"postcode": 1490, "name": "Miranda", "active_cases": 0}, {"postcode": 1493, "name": "Hurstville", "active_cases": 0}, {"postcode": 1495, "name": "Caringbah", "active_cases": 0}, {"postcode": 1499, "name": "Sutherland", "active_cases": 0}, {"postcode": 1515, "name": "West Chatswood", "active_cases": 0}, {"postcode": 1560, "name": "Northbridge", "active_cases": 0}, {"postcode": 1565, "name": "Milsons Point", "active_cases": 0}, {"postcode": 1570, "name": "Artarmon", "active_cases": 0}, {"postcode": 1582, "name": "Crows Nest", "active_cases": 0}, {"postcode": 1585, "name": "Crows Nest", "active_cases": 0}, {"postcode": 1590, "name": "St Leonards", "active_cases": 0}, {"postcode": 1595, "name": "Lane Cove", "active_cases": 0}, {"postcode": 1597, "name": "Lane Cove", "active_cases": 0}, {"postcode": 1602, "name": "Lane Cove DC", "active_cases": 0}, {"postcode": 1630, "name": "Hornsby", "active_cases": 0}, {"postcode": 1635, "name": "Hornsby Westfield", "active_cases": 0}, {"postcode": 1639, "name": "Frenchs Forest", "active_cases": 0}, {"postcode": 1640, "name": "Frenchs Forest", "active_cases": 0}, {"postcode": 1655, "name": "Manly", "active_cases": 0}, {"postcode": 1658, "name": "Mona Vale", "active_cases": 0}, {"postcode": 1660, "name": "Mona Vale", "active_cases": 0}, {"postcode": 1670, "name": "North Ryde Bc", "active_cases": 0}, {"postcode": 1671, "name": "North Ryde", "active_cases": 0}, {"postcode": 1675, "name": "Gladesville", "active_cases": 0}, {"postcode": 1680, "name": "Ryde", "active_cases": 0}, {"postcode": 1685, "name": "West Ryde", "active_cases": 0}, {"postcode": 1690, "name": "Northern Suburbs Mc", "active_cases": 0}, {"postcode": 1691, "name": "Northern Suburbs Mc", "active_cases": 0}, {"postcode": 1692, "name": "Northern Suburbs Mc", "active_cases": 0}, {"postcode": 1693, "name": "Northern Suburbs Mc", "active_cases": 0}, {"postcode": 1694, "name": "Northern Suburbs Mc", "active_cases": 0}, {"postcode": 1695, "name": "Northern Suburbs Mc", "active_cases": 0}, {"postcode": 1696, "name": "Northern Suburbs Mc", "active_cases": 0}, {"postcode": 1697, "name": "Northern Suburbs Mc", "active_cases": 0}, {"postcode": 1698, "name": "Northern Suburbs Mc", "active_cases": 0}, {"postcode": 1699, "name": "Northern Suburbs Mc", "active_cases": 0}, {"postcode": 1700, "name": "Ermington", "active_cases": 0}, {"postcode": 1701, "name": "Rydalmere Bc", "active_cases": 0}, {"postcode": 1710, "name": "Epping", "active_cases": 0}, {"postcode": 1712, "name": "Epping", "active_cases": 0}, {"postcode": 1715, "name": "Pennant Hills", "active_cases": 0}, {"postcode": 1730, "name": "Seven Hills", "active_cases": 0}, {"postcode": 1740, "name": "Parramatta", "active_cases": 0}, {"postcode": 1741, "name": "Parramatta", "active_cases": 0}, {"postcode": 1750, "name": "North Parramatta", "active_cases": 0}, {"postcode": 1755, "name": "Baulkham Hills", "active_cases": 0}, {"postcode": 1765, "name": "Castle Hill", "active_cases": 0}, {"postcode": 1771, "name": "Pennant Hills", "active_cases": 0}, {"postcode": 1781, "name": "Seven Hills Mc", "active_cases": 0}, {"postcode": 1790, "name": "St Marys", "active_cases": 0}, {"postcode": 1797, "name": "Penrith South DC", "active_cases": 0}, {"postcode": 1800, "name": "Ashfield", "active_cases": 0}, {"postcode": 1805, "name": "Burwood", "active_cases": 0}, {"postcode": 1811, "name": "Silverwater", "active_cases": 0}, {"postcode": 1825, "name": "Lidcombe", "active_cases": 0}, {"postcode": 1826, "name": "Lidcombe", "active_cases": 0}, {"postcode": 1830, "name": "Granville", "active_cases": 0}, {"postcode": 1831, "name": "Granville", "active_cases": 0}, {"postcode": 1835, "name": "Auburn", "active_cases": 0}, {"postcode": 1848, "name": "Guildford", "active_cases": 0}, {"postcode": 1851, "name": "Wetherill Park Dc", "active_cases": 0}, {"postcode": 1860, "name": "Fairfield", "active_cases": 0}, {"postcode": 1871, "name": "Liverpool", "active_cases": 0}, {"postcode": 1875, "name": "Moorebank", "active_cases": 0}, {"postcode": 1885, "name": "Bankstown", "active_cases": 0}, {"postcode": 1888, "name": "Bankstown", "active_cases": 0}, {"postcode": 1890, "name": "Ingleburn", "active_cases": 0}, {"postcode": 1891, "name": "Milperra", "active_cases": 0}, {"postcode": 1900, "name": "Leightonfield Mc", "active_cases": 0}, {"postcode": 1902, "name": "Leightonfield Mc", "active_cases": 0}, {"postcode": 2000, "name": "Sydney", "active_cases": 0}, {"postcode": 2001, "name": "Sydney", "active_cases": 0}, {"postcode": 2002, "name": "World Square", "active_cases": 0}, {"postcode": 2004, "name": "Alexandria Mc", "active_cases": 0}, {"postcode": 2006, "name": "The University Of Sydney", "active_cases": 0}, {"postcode": 2007, "name": "Broadway", "active_cases": 0}, {"postcode": 2008, "name": "Darlington", "active_cases": 0}, {"postcode": 2009, "name": "Pyrmont", "active_cases": 0}, {"postcode": 2010, "name": "Darlinghurst", "active_cases": 0}, {"postcode": 2011, "name": "Kings Cross", "active_cases": 0}, {"postcode": 2012, "name": "Strawberry Hills", "active_cases": 0}, {"postcode": 2015, "name": "Eveleigh", "active_cases": 0}, {"postcode": 2016, "name": "Redfern", "active_cases": 0}, {"postcode": 2017, "name": "Waterloo", "active_cases": 0}, {"postcode": 2018, "name": "Rosebery", "active_cases": 0}, {"postcode": 2019, "name": "Botany", "active_cases": 0}, {"postcode": 2020, "name": "Sydney International Airport", "active_cases": 0}, {"postcode": 2021, "name": "Paddington", "active_cases": 0}, {"postcode": 2022, "name": "Queens Park", "active_cases": 0}, {"postcode": 2023, "name": "Bellevue Hill", "active_cases": 0}, {"postcode": 2024, "name": "Bronte", "active_cases": 0}, {"postcode": 2025, "name": "Woollahra", "active_cases": 0}, {"postcode": 2026, "name": "Tamarama", "active_cases": 0}, {"postcode": 2027, "name": "Darling Point", "active_cases": 0}, {"postcode": 2028, "name": "Double Bay", "active_cases": 0}, {"postcode": 2029, "name": "Rose Bay", "active_cases": 0}, {"postcode": 2030, "name": "Vaucluse", "active_cases": 0}, {"postcode": 2031, "name": "Clovelly", "active_cases": 0}, {"postcode": 2032, "name": "Kingsford", "active_cases": 0}, {"postcode": 2033, "name": "Kensington", "active_cases": 0}, {"postcode": 2034, "name": "South Coogee", "active_cases": 0}, {"postcode": 2035, "name": "Maroubra", "active_cases": 0}, {"postcode": 2036, "name": "Phillip Bay", "active_cases": 0}, {"postcode": 2037, "name": "Glebe", "active_cases": 0}, {"postcode": 2038, "name": "Annandale", "active_cases": 0}, {"postcode": 2039, "name": "Rozelle", "active_cases": 0}, {"postcode": 2040, "name": "Lilyfield", "active_cases": 0}, {"postcode": 2041, "name": "Balmain", "active_cases": 0}, {"postcode": 2042, "name": "Newtown", "active_cases": 0}, {"postcode": 2043, "name": "Erskineville", "active_cases": 0}, {"postcode": 2044, "name": "St Peters", "active_cases": 0}, {"postcode": 2045, "name": "Haberfield", "active_cases": 0}, {"postcode": 2046, "name": "Russell Lea", "active_cases": 0}, {"postcode": 2047, "name": "Drummoyne", "active_cases": 0}, {"postcode": 2048, "name": "Westgate", "active_cases": 0}, {"postcode": 2049, "name": "Petersham North", "active_cases": 0}, {"postcode": 2050, "name": "Missenden Road", "active_cases": 0}, {"postcode": 2052, "name": "Unsw Sydney", "active_cases": 0}, {"postcode": 2055, "name": "North Sydney", "active_cases": 0}, {"postcode": 2057, "name": "Chatswood", "active_cases": 0}, {"postcode": 2058, "name": "Northern Suburbs Mc", "active_cases": 0}, {"postcode": 2059, "name": "North Sydney", "active_cases": 0}, {"postcode": 2060, "name": "Hmas Waterhen", "active_cases": 0}, {"postcode": 2061, "name": "Milsons Point", "active_cases": 0}, {"postcode": 2062, "name": "Cammeray", "active_cases": 0}, {"postcode": 2063, "name": "Northbridge", "active_cases": 0}, {"postcode": 2064, "name": "Artarmon", "active_cases": 0}, {"postcode": 2065, "name": "Greenwich", "active_cases": 0}, {"postcode": 2066, "name": "Northwood", "active_cases": 0}, {"postcode": 2067, "name": "Chatswood West", "active_cases": 0}, {"postcode": 2068, "name": "Willoughby East", "active_cases": 0}, {"postcode": 2069, "name": "Castle Cove", "active_cases": 0}, {"postcode": 2070, "name": "East Lindfield", "active_cases": 0}, {"postcode": 2071, "name": "Killara", "active_cases": 0}, {"postcode": 2072, "name": "Gordon", "active_cases": 0}, {"postcode": 2073, "name": "West Pymble", "active_cases": 0}, {"postcode": 2074, "name": "South Turramurra", "active_cases": 0}, {"postcode": 2075, "name": "St Ives Chase", "active_cases": 0}, {"postcode": 2076, "name": "Wahroonga", "active_cases": 0}, {"postcode": 2077, "name": "Waitara", "active_cases": 0}, {"postcode": 2079, "name": "Mount Colah", "active_cases": 0}, {"postcode": 2080, "name": "Mount Kuring-Gai", "active_cases": 0}, {"postcode": 2081, "name": "Berowra", "active_cases": 0}, {"postcode": 2082, "name": "Berowra Creek", "active_cases": 0}, {"postcode": 2083, "name": "Cogra Bay", "active_cases": 0}, {"postcode": 2084, "name": "Duffys Forest", "active_cases": 0}, {"postcode": 2085, "name": "Belrose West", "active_cases": 0}, {"postcode": 2086, "name": "Frenchs Forest East", "active_cases": 0}, {"postcode": 2087, "name": "Killarney Heights", "active_cases": 0}, {"postcode": 2088, "name": "Mosman", "active_cases": 0}, {"postcode": 2089, "name": "Kurraba Point", "active_cases": 0}, {"postcode": 2090, "name": "Cremorne Junction", "active_cases": 0}, {"postcode": 2091, "name": "Hmas Penguin", "active_cases": 0}, {"postcode": 2092, "name": "Seaforth", "active_cases": 0}, {"postcode": 2093, "name": "Balgowlah Heights", "active_cases": 0}, {"postcode": 2094, "name": "Fairlight", "active_cases": 0}, {"postcode": 2095, "name": "Manly", "active_cases": 0}, {"postcode": 2096, "name": "Curl Curl", "active_cases": 0}, {"postcode": 2097, "name": "Collaroy Beach", "active_cases": 0}, {"postcode": 2099, "name": "Wingala", "active_cases": 0}, {"postcode": 2100, "name": "Brookvale", "active_cases": 0}, {"postcode": 2101, "name": "Elanora Heights", "active_cases": 0}, {"postcode": 2102, "name": "Warriewood", "active_cases": 0}, {"postcode": 2103, "name": "Mona Vale", "active_cases": 0}, {"postcode": 2104, "name": "Bayview", "active_cases": 0}, {"postcode": 2105, "name": "Church Point", "active_cases": 0}, {"postcode": 2106, "name": "Newport", "active_cases": 0}, {"postcode": 2107, "name": "Clareville", "active_cases": 0}, {"postcode": 2108, "name": "Great Mackerel Beach", "active_cases": 0}, {"postcode": 2109, "name": "Macquarie University", "active_cases": 0}, {"postcode": 2110, "name": "Hunters Hill", "active_cases": 0}, {"postcode": 2111, "name": "Henley", "active_cases": 0}, {"postcode": 2112, "name": "Ryde", "active_cases": 0}, {"postcode": 2113, "name": "Macquarie Centre", "active_cases": 0}, {"postcode": 2114, "name": "Meadowbank", "active_cases": 0}, {"postcode": 2115, "name": "Ermington", "active_cases": 0}, {"postcode": 2116, "name": "Rydalmere", "active_cases": 0}, {"postcode": 2117, "name": "Dundas", "active_cases": 0}, {"postcode": 2118, "name": "Carlingford", "active_cases": 0}, {"postcode": 2119, "name": "Beecroft", "active_cases": 0}, {"postcode": 2120, "name": "Pennant Hills", "active_cases": 0}, {"postcode": 2121, "name": "Epping", "active_cases": 0}, {"postcode": 2122, "name": "Marsfield", "active_cases": 0}, {"postcode": 2123, "name": "Parramatta", "active_cases": 0}, {"postcode": 2124, "name": "Parramatta", "active_cases": 0}, {"postcode": 2125, "name": "West Pennant Hills", "active_cases": 0}, {"postcode": 2126, "name": "Cherrybrook", "active_cases": 0}, {"postcode": 2127, "name": "Sydney Olympic Park", "active_cases": 0}, {"postcode": 2128, "name": "Silverwater", "active_cases": 0}, {"postcode": 2129, "name": "Sydney Markets", "active_cases": 0}, {"postcode": 2130, "name": "Summer Hill", "active_cases": 0}, {"postcode": 2131, "name": "Ashfield", "active_cases": 0}, {"postcode": 2132, "name": "Croydon", "active_cases": 0}, {"postcode": 2133, "name": "Enfield South", "active_cases": 0}, {"postcode": 2134, "name": "Burwood North", "active_cases": 0}, {"postcode": 2135, "name": "Strathfield", "active_cases": 0}, {"postcode": 2136, "name": "Strathfield South", "active_cases": 0}, {"postcode": 2137, "name": "Mortlake", "active_cases": 0}, {"postcode": 2138, "name": "Concord West", "active_cases": 0}, {"postcode": 2139, "name": "Concord Repatriation Hospital", "active_cases": 0}, {"postcode": 2140, "name": "Homebush", "active_cases": 0}, {"postcode": 2141, "name": "Rookwood", "active_cases": 0}, {"postcode": 2142, "name": "Camellia", "active_cases": 0}, {"postcode": 2143, "name": "Birrong", "active_cases": 0}, {"postcode": 2144, "name": "Auburn", "active_cases": 0}, {"postcode": 2145, "name": "Wentworthville", "active_cases": 0}, {"postcode": 2146, "name": "Toongabbie East", "active_cases": 0}, {"postcode": 2147, "name": "Lalor Park", "active_cases": 0}, {"postcode": 2148, "name": "Prospect", "active_cases": 0}, {"postcode": 2150, "name": "Parramatta", "active_cases": 0}, {"postcode": 2151, "name": "North Parramatta", "active_cases": 0}, {"postcode": 2152, "name": "Northmead", "active_cases": 0}, {"postcode": 2153, "name": "Winston Hills", "active_cases": 0}, {"postcode": 2154, "name": "Castle Hill", "active_cases": 0}, {"postcode": 2155, "name": "Rouse Hill", "active_cases": 0}, {"postcode": 2156, "name": "Annangrove", "active_cases": 0}, {"postcode": 2157, "name": "Glenorie", "active_cases": 0}, {"postcode": 2158, "name": "Round Corner", "active_cases": 0}, {"postcode": 2159, "name": "Galston", "active_cases": 0}, {"postcode": 2160, "name": "Merrylands", "active_cases": 0}, {"postcode": 2161, "name": "Guildford", "active_cases": 0}, {"postcode": 2162, "name": "Chester Hill", "active_cases": 0}, {"postcode": 2163, "name": "Lansdowne", "active_cases": 0}, {"postcode": 2164, "name": "Smithfield West", "active_cases": 0}, {"postcode": 2165, "name": "Fairfield West", "active_cases": 0}, {"postcode": 2166, "name": "Canley Vale", "active_cases": 0}, {"postcode": 2167, "name": "Glenfield", "active_cases": 0}, {"postcode": 2168, "name": "Green Valley", "active_cases": 0}, {"postcode": 2170, "name": "Casula", "active_cases": 0}, {"postcode": 2171, "name": "Hoxton Park", "active_cases": 0}, {"postcode": 2172, "name": "Sandy Point", "active_cases": 0}, {"postcode": 2173, "name": "Holsworthy", "active_cases": 0}, {"postcode": 2174, "name": "Edmondson Park", "active_cases": 0}, {"postcode": 2175, "name": "Horsley Park", "active_cases": 0}, {"postcode": 2176, "name": "Bossley Park", "active_cases": 0}, {"postcode": 2177, "name": "Bonnyrigg Heights", "active_cases": 0}, {"postcode": 2178, "name": "Kemps Creek", "active_cases": 0}, {"postcode": 2179, "name": "Austral", "active_cases": 0}, {"postcode": 2190, "name": "Mount Lewis", "active_cases": 0}, {"postcode": 2191, "name": "Belfield", "active_cases": 0}, {"postcode": 2192, "name": "Belmore", "active_cases": 0}, {"postcode": 2193, "name": "Hurlstone Park", "active_cases": 0}, {"postcode": 2194, "name": "Campsie", "active_cases": 0}, {"postcode": 2195, "name": "Wiley Park", "active_cases": 0}, {"postcode": 2196, "name": "Roselands", "active_cases": 0}, {"postcode": 2197, "name": "Bass Hill", "active_cases": 0}, {"postcode": 2198, "name": "Georges Hall", "active_cases": 0}, {"postcode": 2199, "name": "Yagoona", "active_cases": 0}, {"postcode": 2200, "name": "Condell Park", "active_cases": 0}, {"postcode": 2203, "name": "Dulwich Hill", "active_cases": 0}, {"postcode": 2204, "name": "Marrickville Metro", "active_cases": 0}, {"postcode": 2205, "name": "Turrella", "active_cases": 0}, {"postcode": 2206, "name": "Earlwood", "active_cases": 0}, {"postcode": 2207, "name": "Bexley South", "active_cases": 0}, {"postcode": 2208, "name": "Kingsway West", "active_cases": 0}, {"postcode": 2209, "name": "Beverly Hills", "active_cases": 0}, {"postcode": 2210, "name": "Peakhurst", "active_cases": 0}, {"postcode": 2211, "name": "Padstow Heights", "active_cases": 0}, {"postcode": 2212, "name": "Revesby Heights", "active_cases": 0}, {"postcode": 2213, "name": "Panania", "active_cases": 0}, {"postcode": 2214, "name": "Milperra", "active_cases": 0}, {"postcode": 2216, "name": "Rockdale", "active_cases": 0}, {"postcode": 2217, "name": "Beverley Park", "active_cases": 0}, {"postcode": 2218, "name": "Allawah", "active_cases": 0}, {"postcode": 2219, "name": "Dolls Point", "active_cases": 0}, {"postcode": 2220, "name": "Hurstville Grove", "active_cases": 0}, {"postcode": 2221, "name": "Blakehurst", "active_cases": 0}, {"postcode": 2222, "name": "Penshurst", "active_cases": 0}, {"postcode": 2223, "name": "Mortdale", "active_cases": 0}, {"postcode": 2224, "name": "Kangaroo Point", "active_cases": 0}, {"postcode": 2225, "name": "Oyster Bay", "active_cases": 0}, {"postcode": 2226, "name": "Jannali", "active_cases": 0}, {"postcode": 2227, "name": "Gymea Bay", "active_cases": 0}, {"postcode": 2228, "name": "Miranda", "active_cases": 0}, {"postcode": 2229, "name": "Taren Point", "active_cases": 0}, {"postcode": 2230, "name": "Greenhills Beach", "active_cases": 0}, {"postcode": 2231, "name": "Kurnell", "active_cases": 0}, {"postcode": 2232, "name": "Audley", "active_cases": 0}, {"postcode": 2233, "name": "Waterfall", "active_cases": 0}, {"postcode": 2234, "name": "Lucas Heights", "active_cases": 0}, {"postcode": 2250, "name": "Wyoming", "active_cases": 0}, {"postcode": 2251, "name": "Picketts Valley", "active_cases": 0}, {"postcode": 2252, "name": "Central Coast Mc", "active_cases": 0}, {"postcode": 2256, "name": "Horsfield Bay", "active_cases": 0}, {"postcode": 2257, "name": "Killcare Heights", "active_cases": 0}, {"postcode": 2258, "name": "Palmdale", "active_cases": 0}, {"postcode": 2259, "name": "Wybung", "active_cases": 0}, {"postcode": 2260, "name": "Terrigal", "active_cases": 0}, {"postcode": 2261, "name": "Blue Bay", "active_cases": 0}, {"postcode": 2262, "name": "Colongra", "active_cases": 0}, {"postcode": 2263, "name": "Charmhaven", "active_cases": 0}, {"postcode": 2264, "name": "Yarrawonga Park", "active_cases": 0}, {"postcode": 2265, "name": "Cooranbong", "active_cases": 0}, {"postcode": 2267, "name": "Wangi Wangi", "active_cases": 0}, {"postcode": 2278, "name": "Barnsley", "active_cases": 0}, {"postcode": 2280, "name": "Croudace Bay", "active_cases": 0}, {"postcode": 2281, "name": "Blacksmiths", "active_cases": 0}, {"postcode": 2282, "name": "Warners Bay", "active_cases": 0}, {"postcode": 2283, "name": "Buttaba", "active_cases": 0}, {"postcode": 2284, "name": "Teralba", "active_cases": 0}, {"postcode": 2285, "name": "Macquarie Hills", "active_cases": 0}, {"postcode": 2286, "name": "West Wallsend", "active_cases": 0}, {"postcode": 2287, "name": "Birmingham Gardens", "active_cases": 0}, {"postcode": 2289, "name": "Highfields", "active_cases": 0}, {"postcode": 2290, "name": "Charlestown", "active_cases": 0}, {"postcode": 2291, "name": "The Junction", "active_cases": 0}, {"postcode": 2292, "name": "Hamilton North", "active_cases": 0}, {"postcode": 2293, "name": "Maryville", "active_cases": 0}, {"postcode": 2294, "name": "Carrington", "active_cases": 0}, {"postcode": 2295, "name": "Fern Bay", "active_cases": 0}, {"postcode": 2296, "name": "Islington", "active_cases": 0}, {"postcode": 2297, "name": "Tighes Hill", "active_cases": 0}, {"postcode": 2298, "name": "Waratah", "active_cases": 0}, {"postcode": 2299, "name": "Lambton", "active_cases": 0}, {"postcode": 2300, "name": "Newcastle", "active_cases": 0}, {"postcode": 2302, "name": "Newcastle West", "active_cases": 0}, {"postcode": 2303, "name": "Hamilton South", "active_cases": 0}, {"postcode": 2304, "name": "Kooragang", "active_cases": 0}, {"postcode": 2305, "name": "New Lambton", "active_cases": 0}, {"postcode": 2306, "name": "Windale", "active_cases": 0}, {"postcode": 2307, "name": "Shortland", "active_cases": 0}, {"postcode": 2308, "name": "Newcastle University", "active_cases": 0}, {"postcode": 2309, "name": "Dangar", "active_cases": 0}, {"postcode": 2310, "name": "Hunter Region Mc", "active_cases": 0}, {"postcode": 2311, "name": "East Gresford", "active_cases": 0}, {"postcode": 2312, "name": "Minimbah", "active_cases": 0}, {"postcode": 2314, "name": "Williamtown Raaf", "active_cases": 0}, {"postcode": 2315, "name": "Fingal Bay", "active_cases": 0}, {"postcode": 2316, "name": "Taylors Beach", "active_cases": 0}, {"postcode": 2317, "name": "Soldiers Point", "active_cases": 0}, {"postcode": 2318, "name": "Medowie", "active_cases": 0}, {"postcode": 2319, "name": "Tilligerry Creek", "active_cases": 0}, {"postcode": 2320, "name": "Mindaribba", "active_cases": 0}, {"postcode": 2321, "name": "Butterwick", "active_cases": 0}, {"postcode": 2322, "name": "Hexham", "active_cases": 0}, {"postcode": 2323, "name": "East Maitland", "active_cases": 0}, {"postcode": 2324, "name": "Limeburners Creek", "active_cases": 0}, {"postcode": 2325, "name": "Paxton", "active_cases": 0}, {"postcode": 2326, "name": "Neath", "active_cases": 0}, {"postcode": 2327, "name": "Stanford Merthyr", "active_cases": 0}, {"postcode": 2328, "name": "Denman", "active_cases": 0}, {"postcode": 2329, "name": "Cassilis", "active_cases": 0}, {"postcode": 2330, "name": "Ravensworth", "active_cases": 0}, {"postcode": 2331, "name": "Singleton Milpo", "active_cases": 0}, {"postcode": 2333, "name": "Baerami Creek", "active_cases": 0}, {"postcode": 2334, "name": "Greta", "active_cases": 0}, {"postcode": 2335, "name": "Leconfield", "active_cases": 0}, {"postcode": 2336, "name": "Upper Rouchel", "active_cases": 0}, {"postcode": 2337, "name": "Stewarts Brook", "active_cases": 0}, {"postcode": 2338, "name": "Timor", "active_cases": 0}, {"postcode": 2339, "name": "Warrah Creek", "active_cases": 0}, {"postcode": 2340, "name": "Loomberah", "active_cases": 0}, {"postcode": 2341, "name": "Werris Creek", "active_cases": 0}, {"postcode": 2342, "name": "Piallaway", "active_cases": 0}, {"postcode": 2343, "name": "Coomoo Coomoo", "active_cases": 0}, {"postcode": 2344, "name": "Duri", "active_cases": 0}, {"postcode": 2345, "name": "Garthowen", "active_cases": 0}, {"postcode": 2346, "name": "Wongo Creek", "active_cases": 0}, {"postcode": 2347, "name": "Thirldene", "active_cases": 0}, {"postcode": 2348, "name": "New England Mc", "active_cases": 0}, {"postcode": 2350, "name": "Hillgrove", "active_cases": 0}, {"postcode": 2351, "name": "University Of New England", "active_cases": 0}, {"postcode": 2352, "name": "Limbri", "active_cases": 0}, {"postcode": 2353, "name": "Moonbi", "active_cases": 0}, {"postcode": 2354, "name": "Woolbrook", "active_cases": 0}, {"postcode": 2355, "name": "Watsons Creek", "active_cases": 0}, {"postcode": 2356, "name": "Gwabegar", "active_cases": 0}, {"postcode": 2357, "name": "Coonabarabran", "active_cases": 0}, {"postcode": 2358, "name": "Gostwyck", "active_cases": 0}, {"postcode": 2359, "name": "Bakers Creek", "active_cases": 0}, {"postcode": 2360, "name": "Wandera", "active_cases": 0}, {"postcode": 2361, "name": "Ashford", "active_cases": 0}, {"postcode": 2365, "name": "Oban", "active_cases": 0}, {"postcode": 2369, "name": "Tingha", "active_cases": 0}, {"postcode": 2370, "name": "Dundee", "active_cases": 0}, {"postcode": 2371, "name": "Rocky Creek", "active_cases": 0}, {"postcode": 2372, "name": "Silent Grove", "active_cases": 0}, {"postcode": 2379, "name": "Goolhi", "active_cases": 0}, {"postcode": 2380, "name": "Coocooboonah", "active_cases": 0}, {"postcode": 2381, "name": "Curlewis", "active_cases": 0}, {"postcode": 2382, "name": "Maules Creek", "active_cases": 0}, {"postcode": 2386, "name": "Drildool", "active_cases": 0}, {"postcode": 2387, "name": "Rowena", "active_cases": 0}, {"postcode": 2388, "name": "Merah North", "active_cases": 0}, {"postcode": 2390, "name": "Jacks Creek", "active_cases": 0}, {"postcode": 2395, "name": "Ropers Road", "active_cases": 0}, {"postcode": 2396, "name": "Barwon", "active_cases": 0}, {"postcode": 2397, "name": "Millie", "active_cases": 0}, {"postcode": 2398, "name": "Gurley", "active_cases": 0}, {"postcode": 2399, "name": "Biniguy", "active_cases": 0}, {"postcode": 2400, "name": "Bullarah", "active_cases": 0}, {"postcode": 2401, "name": "Gravesend", "active_cases": 0}, {"postcode": 2402, "name": "Coolatai", "active_cases": 0}, {"postcode": 2403, "name": "Delungra", "active_cases": 0}, {"postcode": 2404, "name": "Bingara", "active_cases": 0}, {"postcode": 2405, "name": "Boomi", "active_cases": 0}, {"postcode": 2406, "name": "Weemelah", "active_cases": 0}, {"postcode": 2408, "name": "North Star", "active_cases": 0}, {"postcode": 2409, "name": "Boggabilla", "active_cases": 0}, {"postcode": 2410, "name": "Yetman", "active_cases": 0}, {"postcode": 2411, "name": "Croppa Creek", "active_cases": 0}, {"postcode": 2415, "name": "Monkerai", "active_cases": 0}, {"postcode": 2420, "name": "Fosterton", "active_cases": 0}, {"postcode": 2421, "name": "Webbers Creek", "active_cases": 0}, {"postcode": 2422, "name": "Gloucester Tops", "active_cases": 0}, {"postcode": 2423, "name": "Upper Myall", "active_cases": 0}, {"postcode": 2424, "name": "Knorrit Flat", "active_cases": 0}, {"postcode": 2425, "name": "Allworth", "active_cases": 0}, {"postcode": 2426, "name": "Moto", "active_cases": 0}, {"postcode": 2427, "name": "Harrington", "active_cases": 0}, {"postcode": 2428, "name": "Whoota", "active_cases": 0}, {"postcode": 2429, "name": "Bobin", "active_cases": 0}, {"postcode": 2430, "name": "Purfleet", "active_cases": 0}, {"postcode": 2431, "name": "South West Rocks", "active_cases": 0}, {"postcode": 2439, "name": "Kerewong", "active_cases": 0}, {"postcode": 2440, "name": "West Kempsey", "active_cases": 0}, {"postcode": 2441, "name": "Eungai Rail", "active_cases": 0}, {"postcode": 2442, "name": "Mid North Coast Msc", "active_cases": 0}, {"postcode": 2443, "name": "Diamond Head", "active_cases": 0}, {"postcode": 2444, "name": "Riverside", "active_cases": 0}, {"postcode": 2445, "name": "Bonny Hills", "active_cases": 0}, {"postcode": 2446, "name": "Wauchope", "active_cases": 0}, {"postcode": 2447, "name": "Gumma", "active_cases": 0}, {"postcode": 2448, "name": "Hyland Park", "active_cases": 0}, {"postcode": 2449, "name": "South Arm", "active_cases": 0}, {"postcode": 2450, "name": "Upper Orara", "active_cases": 0}, {"postcode": 2452, "name": "Sawtell", "active_cases": 0}, {"postcode": 2453, "name": "Never Never", "active_cases": 0}, {"postcode": 2454, "name": "Mylestom", "active_cases": 0}, {"postcode": 2455, "name": "Urunga", "active_cases": 0}, {"postcode": 2456, "name": "Mullaway", "active_cases": 0}, {"postcode": 2460, "name": "Smiths Creek", "active_cases": 0}, {"postcode": 2462, "name": "Wooli", "active_cases": 0}, {"postcode": 2463, "name": "Maclean", "active_cases": 0}, {"postcode": 2464, "name": "Freeburn Island", "active_cases": 0}, {"postcode": 2465, "name": "Harwood", "active_cases": 0}, {"postcode": 2466, "name": "Woody Head", "active_cases": 0}, {"postcode": 2469, "name": "Haystack", "active_cases": 0}, {"postcode": 2470, "name": "Ellangowan", "active_cases": 0}, {"postcode": 2471, "name": "Codrington", "active_cases": 0}, {"postcode": 2472, "name": "Rileys Hill", "active_cases": 0}, {"postcode": 2473, "name": "Evans Head", "active_cases": 0}, {"postcode": 2474, "name": "Cawongla", "active_cases": 0}, {"postcode": 2475, "name": "Upper Tooloom", "active_cases": 0}, {"postcode": 2476, "name": "Koreelah", "active_cases": 0}, {"postcode": 2477, "name": "Lynwood", "active_cases": 0}, {"postcode": 2478, "name": "Empire Vale", "active_cases": 0}, {"postcode": 2479, "name": "Bangalow", "active_cases": 0}, {"postcode": 2480, "name": "Tucki Tucki", "active_cases": 0}, {"postcode": 2481, "name": "Hayters Hill", "active_cases": 0}, {"postcode": 2482, "name": "Upper Wilsons Creek", "active_cases": 0}, {"postcode": 2483, "name": "Sleepy Hollow", "active_cases": 0}, {"postcode": 2484, "name": "Dum Dum", "active_cases": 0}, {"postcode": 2485, "name": "Tweed Heads West", "active_cases": 0}, {"postcode": 2486, "name": "Piggabeen", "active_cases": 0}, {"postcode": 2487, "name": "Duranbah", "active_cases": 0}, {"postcode": 2488, "name": "Bogangar", "active_cases": 0}, {"postcode": 2489, "name": "Pottsville", "active_cases": 0}, {"postcode": 2490, "name": "North Tumbulgum", "active_cases": 0}, {"postcode": 2500, "name": "Wollongong", "active_cases": 0}, {"postcode": 2502, "name": "Primbee", "active_cases": 0}, {"postcode": 2505, "name": "Kemblawarra", "active_cases": 0}, {"postcode": 2506, "name": "Berkeley", "active_cases": 0}, {"postcode": 2508, "name": "Maddens Plains", "active_cases": 0}, {"postcode": 2515, "name": "Coledale", "active_cases": 0}, {"postcode": 2516, "name": "Bulli", "active_cases": 0}, {"postcode": 2517, "name": "Woonona", "active_cases": 0}, {"postcode": 2518, "name": "Bellambi", "active_cases": 0}, {"postcode": 2519, "name": "Balgownie", "active_cases": 0}, {"postcode": 2520, "name": "Wollongong", "active_cases": 0}, {"postcode": 2521, "name": "South Coast Mc", "active_cases": 0}, {"postcode": 2522, "name": "University Of Wollongong", "active_cases": 0}, {"postcode": 2525, "name": "Figtree", "active_cases": 0}, {"postcode": 2526, "name": "Cordeaux", "active_cases": 0}, {"postcode": 2527, "name": "Tullimbar", "active_cases": 0}, {"postcode": 2528, "name": "Warilla", "active_cases": 0}, {"postcode": 2529, "name": "Shell Cove", "active_cases": 0}, {"postcode": 2530, "name": "Penrose", "active_cases": 0}, {"postcode": 2533, "name": "Jerrara", "active_cases": 0}, {"postcode": 2534, "name": "Broughton Village", "active_cases": 0}, {"postcode": 2535, "name": "Coolangatta", "active_cases": 0}, {"postcode": 2536, "name": "South Durras", "active_cases": 0}, {"postcode": 2537, "name": "Congo", "active_cases": 0}, {"postcode": 2538, "name": "Mogood", "active_cases": 0}, {"postcode": 2539, "name": "Conjola", "active_cases": 0}, {"postcode": 2540, "name": "Culburra Beach", "active_cases": 0}, {"postcode": 2541, "name": "Nowra Dc", "active_cases": 0}, {"postcode": 2545, "name": "Belowra", "active_cases": 0}, {"postcode": 2546, "name": "Wallaga Lake Heights", "active_cases": 0}, {"postcode": 2548, "name": "Bournda", "active_cases": 0}, {"postcode": 2549, "name": "Nethercote", "active_cases": 0}, {"postcode": 2550, "name": "Wog Wog", "active_cases": 0}, {"postcode": 2551, "name": "Boydtown", "active_cases": 0}, {"postcode": 2555, "name": "Badgerys Creek", "active_cases": 0}, {"postcode": 2556, "name": "Bringelly", "active_cases": 0}, {"postcode": 2557, "name": "Rossmore", "active_cases": 0}, {"postcode": 2558, "name": "Eschol Park", "active_cases": 0}, {"postcode": 2559, "name": "Claymore", "active_cases": 0}, {"postcode": 2560, "name": "Leumeah", "active_cases": 0}, {"postcode": 2563, "name": "Menangle Park", "active_cases": 0}, {"postcode": 2564, "name": "Long Point", "active_cases": 0}, {"postcode": 2565, "name": "Ingleburn", "active_cases": 0}, {"postcode": 2566, "name": "Minto Heights", "active_cases": 0}, {"postcode": 2567, "name": "Narellan Dc", "active_cases": 0}, {"postcode": 2568, "name": "Menangle", "active_cases": 0}, {"postcode": 2569, "name": "Douglas Park", "active_cases": 0}, {"postcode": 2570, "name": "Glenmore", "active_cases": 0}, {"postcode": 2571, "name": "Balmoral Village", "active_cases": 0}, {"postcode": 2572, "name": "Thirlmere", "active_cases": 0}, {"postcode": 2573, "name": "Tahmoor", "active_cases": 0}, {"postcode": 2574, "name": "Pheasants Nest", "active_cases": 0}, {"postcode": 2575, "name": "Yerrinbool", "active_cases": 0}, {"postcode": 2576, "name": "East Bowral", "active_cases": 0}, {"postcode": 2577, "name": "Paddys River", "active_cases": 0}, {"postcode": 2578, "name": "Bundanoon", "active_cases": 0}, {"postcode": 2579, "name": "Brayton", "active_cases": 0}, {"postcode": 2580, "name": "Carrick", "active_cases": 0}, {"postcode": 2581, "name": "Dalton", "active_cases": 0}, {"postcode": 2582, "name": "Mullion", "active_cases": 0}, {"postcode": 2583, "name": "Binda", "active_cases": 0}, {"postcode": 2584, "name": "Binalong", "active_cases": 0}, {"postcode": 2585, "name": "Galong", "active_cases": 0}, {"postcode": 2586, "name": "Boorowa", "active_cases": 0}, {"postcode": 2587, "name": "Wombat", "active_cases": 0}, {"postcode": 2588, "name": "Wallendbeen", "active_cases": 0}, {"postcode": 2590, "name": "Bethungra", "active_cases": 0}, {"postcode": 2594, "name": "Burrangong", "active_cases": 0}, {"postcode": 2611, "name": "Bimberi", "active_cases": 0}, {"postcode": 2618, "name": "Springrange", "active_cases": 0}, {"postcode": 2619, "name": "Jerrabomberra", "active_cases": 0}, {"postcode": 2620, "name": "Queanbeyan", "active_cases": 0}, {"postcode": 2621, "name": "Bungendore", "active_cases": 0}, {"postcode": 2622, "name": "Bendoura", "active_cases": 0}, {"postcode": 2623, "name": "Captains Flat", "active_cases": 0}, {"postcode": 2624, "name": "Charlottes Pass", "active_cases": 0}, {"postcode": 2625, "name": "Thredbo Village", "active_cases": 0}, {"postcode": 2626, "name": "Bredbo", "active_cases": 0}, {"postcode": 2627, "name": "Kosciuszko National Park", "active_cases": 0}, {"postcode": 2628, "name": "Beloka", "active_cases": 0}, {"postcode": 2629, "name": "Tantangara", "active_cases": 0}, {"postcode": 2630, "name": "Rhine Falls", "active_cases": 0}, {"postcode": 2631, "name": "Holts Flat", "active_cases": 0}, {"postcode": 2632, "name": "Cathcart", "active_cases": 0}, {"postcode": 2633, "name": "Corrowong", "active_cases": 0}, {"postcode": 2640, "name": "Talmalmo", "active_cases": 0}, {"postcode": 2641, "name": "Lavington", "active_cases": 0}, {"postcode": 2642, "name": "Jagumba", "active_cases": 0}, {"postcode": 2643, "name": "Howlong", "active_cases": 0}, {"postcode": 2644, "name": "Little Billabong", "active_cases": 0}, {"postcode": 2645, "name": "Urana", "active_cases": 0}, {"postcode": 2646, "name": "Daysdale", "active_cases": 0}, {"postcode": 2647, "name": "Mulwala", "active_cases": 0}, {"postcode": 2648, "name": "Mourquong", "active_cases": 0}, {"postcode": 2649, "name": "Laurel Hill", "active_cases": 0}, {"postcode": 2650, "name": "Tolland", "active_cases": 0}, {"postcode": 2651, "name": "Forest Hill", "active_cases": 0}, {"postcode": 2652, "name": "Boree Creek", "active_cases": 0}, {"postcode": 2653, "name": "Burra", "active_cases": 0}, {"postcode": 2655, "name": "The Rock", "active_cases": 0}, {"postcode": 2656, "name": "Osborne", "active_cases": 0}, {"postcode": 2658, "name": "Pleasant Hills", "active_cases": 0}, {"postcode": 2659, "name": "Alma Park", "active_cases": 0}, {"postcode": 2660, "name": "Morven", "active_cases": 0}, {"postcode": 2661, "name": "Kapooka", "active_cases": 0}, {"postcode": 2663, "name": "Erin Vale", "active_cases": 0}, {"postcode": 2665, "name": "Mirrool", "active_cases": 0}, {"postcode": 2666, "name": "Grogan", "active_cases": 0}, {"postcode": 2668, "name": "Barmedman", "active_cases": 0}, {"postcode": 2669, "name": "Rankins Springs", "active_cases": 0}, {"postcode": 2671, "name": "West Wyalong", "active_cases": 0}, {"postcode": 2672, "name": "Lake Cargelligo", "active_cases": 0}, {"postcode": 2675, "name": "Hillston", "active_cases": 0}, {"postcode": 2678, "name": "Riverina Mc", "active_cases": 0}, {"postcode": 2680, "name": "Beelbangera", "active_cases": 0}, {"postcode": 2681, "name": "Yenda", "active_cases": 0}, {"postcode": 2700, "name": "Sandigo", "active_cases": 0}, {"postcode": 2701, "name": "Methul", "active_cases": 0}, {"postcode": 2702, "name": "Ganmain", "active_cases": 0}, {"postcode": 2703, "name": "Yanco", "active_cases": 0}, {"postcode": 2705, "name": "Corbie Hill", "active_cases": 0}, {"postcode": 2706, "name": "Darlington Point", "active_cases": 0}, {"postcode": 2707, "name": "Coleambally", "active_cases": 0}, {"postcode": 2708, "name": "Murray Region Mc", "active_cases": 0}, {"postcode": 2710, "name": "Pretty Pine", "active_cases": 0}, {"postcode": 2711, "name": "Oxley", "active_cases": 0}, {"postcode": 2712, "name": "Berrigan", "active_cases": 0}, {"postcode": 2713, "name": "Myrtle Park", "active_cases": 0}, {"postcode": 2714, "name": "Tuppal", "active_cases": 0}, {"postcode": 2715, "name": "Hatfield", "active_cases": 0}, {"postcode": 2716, "name": "Four Corners", "active_cases": 0}, {"postcode": 2717, "name": "Dareton", "active_cases": 0}, {"postcode": 2720, "name": "Bombowlee", "active_cases": 0}, {"postcode": 2721, "name": "Quandialla", "active_cases": 0}, {"postcode": 2722, "name": "Gundagai", "active_cases": 0}, {"postcode": 2725, "name": "Stockinbingal", "active_cases": 0}, {"postcode": 2726, "name": "Cooneys Creek", "active_cases": 0}, {"postcode": 2727, "name": "Coolac", "active_cases": 0}, {"postcode": 2729, "name": "Westwood", "active_cases": 0}, {"postcode": 2730, "name": "Green Hills", "active_cases": 0}, {"postcode": 2731, "name": "Bunnaloo", "active_cases": 0}, {"postcode": 2732, "name": "Burraboi", "active_cases": 0}, {"postcode": 2733, "name": "Dhuragoon", "active_cases": 0}, {"postcode": 2734, "name": "Dilpurra", "active_cases": 0}, {"postcode": 2735, "name": "Koraleigh", "active_cases": 0}, {"postcode": 2736, "name": "Goodnight", "active_cases": 0}, {"postcode": 2737, "name": "Euston", "active_cases": 0}, {"postcode": 2738, "name": "Paringi", "active_cases": 0}, {"postcode": 2739, "name": "Mourquong", "active_cases": 0}, {"postcode": 2745, "name": "Mulgoa", "active_cases": 0}, {"postcode": 2747, "name": "Claremont Meadows", "active_cases": 0}, {"postcode": 2748, "name": "Orchard Hills", "active_cases": 0}, {"postcode": 2749, "name": "Castlereagh", "active_cases": 0}, {"postcode": 2750, "name": "Penrith", "active_cases": 0}, {"postcode": 2751, "name": "Penrith", "active_cases": 0}, {"postcode": 2752, "name": "Warragamba", "active_cases": 0}, {"postcode": 2753, "name": "Londonderry", "active_cases": 0}, {"postcode": 2754, "name": "The Slopes", "active_cases": 0}, {"postcode": 2755, "name": "Richmond Raaf", "active_cases": 0}, {"postcode": 2756, "name": "Bligh Park", "active_cases": 0}, {"postcode": 2757, "name": "Kurmond", "active_cases": 0}, {"postcode": 2758, "name": "Blaxlands Ridge", "active_cases": 0}, {"postcode": 2759, "name": "St Clair", "active_cases": 0}, {"postcode": 2760, "name": "Colyton", "active_cases": 0}, {"postcode": 2761, "name": "Plumpton", "active_cases": 0}, {"postcode": 2762, "name": "Schofields", "active_cases": 0}, {"postcode": 2763, "name": "Quakers Hill", "active_cases": 0}, {"postcode": 2765, "name": "Box Hill", "active_cases": 0}, {"postcode": 2766, "name": "Eastern Creek", "active_cases": 0}, {"postcode": 2767, "name": "Bungarribee", "active_cases": 0}, {"postcode": 2768, "name": "Parklea", "active_cases": 0}, {"postcode": 2769, "name": "The Ponds", "active_cases": 0}, {"postcode": 2770, "name": "Lethbridge Park", "active_cases": 0}, {"postcode": 2773, "name": "Lapstone", "active_cases": 0}, {"postcode": 2774, "name": "Mount Riverview", "active_cases": 0}, {"postcode": 2775, "name": "Wisemans Ferry", "active_cases": 0}, {"postcode": 2776, "name": "Faulconbridge", "active_cases": 0}, {"postcode": 2777, "name": "Hawkesbury Heights", "active_cases": 0}, {"postcode": 2778, "name": "Linden", "active_cases": 0}, {"postcode": 2779, "name": "Hazelbrook", "active_cases": 0}, {"postcode": 2780, "name": "Katoomba", "active_cases": 0}, {"postcode": 2782, "name": "Wentworth Falls", "active_cases": 0}, {"postcode": 2783, "name": "Lawson", "active_cases": 0}, {"postcode": 2784, "name": "Bullaburra", "active_cases": 0}, {"postcode": 2785, "name": "Megalong Valley", "active_cases": 0}, {"postcode": 2786, "name": "Mount Irvine", "active_cases": 0}, {"postcode": 2787, "name": "Duckmaloi", "active_cases": 0}, {"postcode": 2790, "name": "Springvale", "active_cases": 0}, {"postcode": 2791, "name": "Carcoar", "active_cases": 0}, {"postcode": 2792, "name": "Mandurama", "active_cases": 0}, {"postcode": 2793, "name": "Darbys Falls", "active_cases": 0}, {"postcode": 2794, "name": "Noonbinna", "active_cases": 0}, {"postcode": 2795, "name": "Locksley", "active_cases": 0}, {"postcode": 2797, "name": "Garland", "active_cases": 0}, {"postcode": 2798, "name": "Forest Reefs", "active_cases": 0}, {"postcode": 2799, "name": "Neville", "active_cases": 0}, {"postcode": 2800, "name": "Lucknow", "active_cases": 0}, {"postcode": 2803, "name": "Crowther", "active_cases": 0}, {"postcode": 2804, "name": "Nyrang Creek", "active_cases": 0}, {"postcode": 2805, "name": "Gooloogong", "active_cases": 0}, {"postcode": 2806, "name": "Eugowra", "active_cases": 0}, {"postcode": 2807, "name": "Koorawatha", "active_cases": 0}, {"postcode": 2808, "name": "Wyangala", "active_cases": 0}, {"postcode": 2809, "name": "Greenethorpe", "active_cases": 0}, {"postcode": 2810, "name": "Pinnacle", "active_cases": 0}, {"postcode": 2818, "name": "Terrabella", "active_cases": 0}, {"postcode": 2820, "name": "Medway", "active_cases": 0}, {"postcode": 2821, "name": "Narromine", "active_cases": 0}, {"postcode": 2823, "name": "Trangie", "active_cases": 0}, {"postcode": 2824, "name": "Mount Foster", "active_cases": 0}, {"postcode": 2825, "name": "Nyngan", "active_cases": 0}, {"postcode": 2826, "name": "Nevertire", "active_cases": 0}, {"postcode": 2827, "name": "Biddon", "active_cases": 0}, {"postcode": 2828, "name": "Armatree", "active_cases": 0}, {"postcode": 2829, "name": "Gilgooma", "active_cases": 0}, {"postcode": 2830, "name": "Dubbo West", "active_cases": 0}, {"postcode": 2831, "name": "Wongarbon", "active_cases": 0}, {"postcode": 2832, "name": "Come By Chance", "active_cases": 0}, {"postcode": 2833, "name": "Collarenebri", "active_cases": 0}, {"postcode": 2834, "name": "Angledool", "active_cases": 0}, {"postcode": 2835, "name": "Cobar", "active_cases": 0}, {"postcode": 2836, "name": "White Cliffs", "active_cases": 0}, {"postcode": 2838, "name": "Goodooga", "active_cases": 0}, {"postcode": 2839, "name": "Narran Lake", "active_cases": 0}, {"postcode": 2840, "name": "Enngonia", "active_cases": 0}, {"postcode": 2842, "name": "Mendooran", "active_cases": 0}, {"postcode": 2843, "name": "Coolah", "active_cases": 0}, {"postcode": 2844, "name": "Leadville", "active_cases": 0}, {"postcode": 2845, "name": "Wallerawang", "active_cases": 0}, {"postcode": 2846, "name": "Glen Davis", "active_cases": 0}, {"postcode": 2847, "name": "Pipers Flat", "active_cases": 0}, {"postcode": 2848, "name": "Clandulla", "active_cases": 0}, {"postcode": 2849, "name": "Upper Bylong", "active_cases": 0}, {"postcode": 2850, "name": "Mogo", "active_cases": 0}, {"postcode": 2852, "name": "Stubbo", "active_cases": 0}, {"postcode": 2864, "name": "Murga", "active_cases": 0}, {"postcode": 2865, "name": "Gumble", "active_cases": 0}, {"postcode": 2866, "name": "Amaroo", "active_cases": 0}, {"postcode": 2867, "name": "Baldry", "active_cases": 0}, {"postcode": 2868, "name": "Obley", "active_cases": 0}, {"postcode": 2869, "name": "Trewilga", "active_cases": 0}, {"postcode": 2870, "name": "Goonumbla", "active_cases": 0}, {"postcode": 2871, "name": "Bedgerebong", "active_cases": 0}, {"postcode": 2873, "name": "Albert", "active_cases": 0}, {"postcode": 2874, "name": "Tullamore", "active_cases": 0}, {"postcode": 2875, "name": "Bruie Plains", "active_cases": 0}, {"postcode": 2876, "name": "Bogan Gate", "active_cases": 0}, {"postcode": 2877, "name": "Bobadah", "active_cases": 0}, {"postcode": 2878, "name": "Ivanhoe", "active_cases": 0}, {"postcode": 2879, "name": "Menindee", "active_cases": 0}, {"postcode": 2880, "name": "Broken Hill", "active_cases": 0}, {"postcode": 2890, "name": "Australian Defence Forces", "active_cases": 0}, {"postcode": 2891, "name": "International Mc", "active_cases": 0}, {"postcode": 2898, "name": "Lord Howe Island", "active_cases": 0}, {"postcode": 2899, "name": "Norfolk Island", "active_cases": 0}, {"postcode": 3500, "name": "Paringi", "active_cases": 0}, {"postcode": 3644, "name": "Barooga", "active_cases": 0}, {"postcode": 3691, "name": "Lake Hume Village", "active_cases": 0}, {"postcode": 3707, "name": "Bringenbrong", "active_cases": 0}, {"postcode": 4377, "name": "Maryland", "active_cases": 0}, {"postcode": 4380, "name": "Mingoola", "active_cases": 0}, {"postcode": 4383, "name": "Jennings", "active_cases": 0}, {"postcode": 4385, "name": "Camp Creek", "active_cases": 0}]}